OBJECT_NAME,OBJECT_ID,EPOCH,MEAN_MOTION,ECCENTRICITY,INCLINATION,RA_OF_ASC_NODE,ARG_OF_PERICENTER,MEAN_ANOMALY,EPHEMERIS_TYPE,CLASSIFICATION_TYPE,NORAD_CAT_ID,ELEMENT_SET_NO,REV_AT_EPOCH,BSTAR,MEAN_MOTION_DOT,MEAN_MOTION_DDOT
LINGQIAO VIDEO A,2015-057B,2026-06-08T19:52:01.488864,14.77383081,.0015473,97.6625,155.0423,300.3812,59.5869,0,U,40959,999,57417,.16081E-3,.1097E-4,0
LINGQIAO VIDEO B,2015-057C,2026-06-08T20:56:49.445664,14.77487508,.0015606,97.6591,156.2507,300.1979,59.7686,0,U,40960,999,57422,.80428E-4,.526E-5,0
JILIN-1,2015-057D,2026-06-08T19:44:10.951872,14.78146909,.0015446,97.6506,159.6045,293.0726,66.8857,0,U,40961,999,57437,.12628E-3,.867E-5,0
FOX-1A (AO-85),2015-058D,2026-06-08T18:24:19.848096,14.90929725,.012997,64.7758,305.1507,59.8929,301.4993,0,U,40967,999,11231,.27655E-3,.3039E-4,0
SINOD-D 1,2015-058E,2026-06-08T17:18:56.869920,14.95852167,.0118557,64.7760,285.4228,56.4584,304.7786,0,U,40968,999,11539,.31553E-3,.3894E-4,0
ELEKTRO-L 2,2015-074A,2026-06-08T01:19:49.413792,1.00272046,.00011341,6.6705,70.6343,284.8984,266.3917,0,U,41105,999,3841,0,-.103E-5,0
DAMPE,2015-078A,2026-06-08T20:47:55.250016,15.30764246,.0013713,97.4563,165.2928,102.7684,257.5091,0,U,41173,999,58327,.49141E-4,.1386E-4,0
ORBCOMM FM114,2015-081A,2026-06-08T10:01:25.516416,14.58848434,.0001977,47.0058,43.4650,170.6189,189.4734,0,U,41179,999,55647,.13985E-3,.49E-5,0
ORBCOMM FM110,2015-081D,2026-06-08T09:44:53.178720,14.58866539,.0002852,47.0028,42.9609,26.3800,333.7231,0,U,41182,999,55634,.19351E-3,.743E-5,0
ORBCOMM FM112,2015-081F,2026-06-07T16:36:11.603808,14.58890878,.00031239,47.0001,315.1475,175.6095,184.4819,0,U,41184,999,55756,.20932025E-3,.819E-5,0
ORBCOMM FM113,2015-081G,2026-06-08T03:32:28.144608,14.58849184,.00017384,47.0018,313.3644,188.1874,171.8983,0,U,41185,999,55761,.14298569E-3,.505E-5,0
ORBCOMM FM108,2015-081J,2026-06-08T10:51:31.680864,14.58862136,.000251,47.0040,223.4955,184.4862,175.6002,0,U,41187,999,55880,.15217E-3,.548E-5,0
ORBCOMM FM117,2015-081K,2026-06-07T20:52:51.913056,14.58857943,.00029806,47.0005,224.8856,184.7848,175.3010,0,U,41188,999,55876,.16110195E-3,.59E-5,0
ORBCOMM FM116,2015-081L,2026-06-07T17:07:36.101856,14.58869594,.00011218,47.0035,315.4145,3.5235,356.5659,0,U,41189,999,55755,.21737163E-3,.857E-5,0
HORYU-4,2016-012D,2026-06-07T15:50:33.220608,15.89027763,.00028324,30.9848,148.6331,206.9121,153.1392,0,U,41340,999,56929,.1021123E-2,.317249E-2,0
ZIYUAN 3-02 (ZY 3-02),2016-033A,2026-06-08T20:05:17.932704,15.21402253,.0011603,97.3835,235.7709,323.0631,36.9805,0,U,41556,999,55671,.25152E-3,.5584E-4,0
CARTOSAT-2C,2016-040A,2026-06-08T21:26:32.822016,15.19251827,.000989,97.4485,219.9853,157.4344,202.7327,0,U,41599,999,55245,.18153E-3,.3762E-4,0
LAPAN-A3,2016-040E,2026-06-08T20:04:35.518080,15.33052724,.0011755,97.1488,156.2570,52.7905,307.4409,0,U,41603,999,55353,.11379E-3,.3565E-4,0
GAOFEN-3,2016-049A,2026-06-08T21:32:12.495840,14.42214094,.0001236,98.4017,167.8086,100.0528,260.0802,0,U,41727,999,51745,.20309E-5,-.37E-6,0
CAS-2T & KS-1Q,2016-066G,2026-06-08T18:58:32.988576,14.44666773,.034248,98.3822,235.6228,154.8869,206.9427,0,U,41847,999,50358,.24711E-3,.171E-4,0
YUNHAI-1 01,2016-068A,2026-06-08T20:32:07.700352,14.32699767,.000647,98.5837,170.9404,63.2061,296.9784,0,U,41857,999,50063,.14781E-3,.358E-5,0
RESOURCESAT-2A,2016-074A,2026-06-08T20:03:57.526272,14.21613615,.0003339,98.7520,233.4086,98.9623,261.1932,0,U,41877,999,49311,.848E-4,.142E-5,0
TANSAT,2016-081A,2026-06-08T19:38:46.665888,14.59944094,.0020159,98.5369,159.8290,339.0087,21.0282,0,U,41898,999,50340,.89505E-4,.379E-5,0
JILIN-1 03,2017-002B,2026-06-08T20:18:58.468320,15.41373035,.00057,97.1953,167.0498,180.7620,179.3619,0,U,41914,999,52057,.30607E-3,.12706E-3,0
CARTOSAT-2D,2017-008A,2026-06-08T20:38:05.851680,15.19265981,.0003566,97.4107,219.3209,270.5641,89.5185,0,U,41948,999,51631,.10397E-3,.2125E-4,0
